{
  "type": "FeatureCollection",
  "features": [
    {
      "type": "Feature",
      "properties": {
        "norad_id": 65943,
        "name": "E-KAGAKU-1",
        "group": "stations",
        "lat": -6.5030361325813635,
        "lon": -173.56849220822411,
        "alt_km": 398.2867482633328,
        "timestamp": "2025-12-02T10:50:46.070969+00:00",
        "meta_object_name": "E-KAGAKU-1",
        "meta_object_id": "1998-067XQ",
        "meta_epoch": "2025-12-01T01:00:17.648352",
        "meta_mean_motion": 15.57460747,
        "meta_eccentricity": 0.00037303,
        "meta_inclination": 51.6301,
        "meta_ra_of_asc_node": 198.6831,
        "meta_arg_of_pericenter": 140.2253,
        "meta_mean_anomaly": 219.9013,
        "meta_ephemeris_type": 0,
        "meta_classification_type": "U",
        "meta_norad_cat_id": 65943,
        "meta_element_set_no": 999,
        "meta_rev_at_epoch": 803,
        "meta_bstar": 0.0008573363,
        "meta_mean_motion_dot": 0.00064224,
        "meta_mean_motion_ddot": 0,
        "tle_line1": "1 65943U 98067XQ  25335.04187093  .00064224  00000+0  85734-3 0  9994",
        "tle_line2": "2 65943  51.6301 198.6831 0003730 140.2253 219.9013 15.57460747  8033"
      },
      "geometry": {
        "type": "Point",
        "coordinates": [
          -173.56849220822411,
          -6.5030361325813635
        ]
      }
    },
    {
      "type": "Feature",
      "properties": {
        "norad_id": 66052,
        "name": "HRC MONOBLOCK CAMERA",
        "group": "stations",
        "lat": 17.478090512203355,
        "lon": -1.6830839721333706,
        "alt_km": 402.82210958781343,
        "timestamp": "2025-12-02T10:50:46.070982+00:00",
        "meta_object_name": "HRC MONOBLOCK CAMERA",
        "meta_object_id": "1998-067XR",
        "meta_epoch": "2025-12-01T21:49:03.450144",
        "meta_mean_motion": 15.53098539,
        "meta_eccentricity": 0.0004502,
        "meta_inclination": 51.6296,
        "meta_ra_of_asc_node": 195.4677,
        "meta_arg_of_pericenter": 140.566,
        "meta_mean_anomaly": 219.5658,
        "meta_ephemeris_type": 0,
        "meta_classification_type": "U",
        "meta_norad_cat_id": 66052,
        "meta_element_set_no": 999,
        "meta_rev_at_epoch": 715,
        "meta_bstar": 0.00057466,
        "meta_mean_motion_dot": 0.00036347,
        "meta_mean_motion_ddot": 0,
        "tle_line1": "1 66052U 98067XR  25335.90906771  .00036347  00000+0  57466-3 0  9999",
        "tle_line2": "2 66052  51.6296 195.4677 0004502 140.5660 219.5658 15.53098539  7159"
      },
      "geometry": {
        "type": "Point",
        "coordinates": [
          -1.6830839721333706,
          17.478090512203355
        ]
      }
    },
    {
      "type": "Feature",
      "properties": {
        "norad_id": 66174,
        "name": "HTV-X1",
        "group": "stations",
        "lat": -21.20879598130756,
        "lon": 31.31402709745876,
        "alt_km": 419.5509808620691,
        "timestamp": "2025-12-02T10:50:46.071018+00:00",
        "meta_object_name": "HTV-X1",
        "meta_object_id": "2025-241A",
        "meta_epoch": "2025-12-01T13:49:44.445504",
        "meta_mean_motion": 15.49226524,
        "meta_eccentricity": 0.00036473,
        "meta_inclination": 51.6309,
        "meta_ra_of_asc_node": 197.7449,
        "meta_arg_of_pericenter": 190.9481,
        "meta_mean_anomaly": 169.1428,
        "meta_ephemeris_type": 0,
        "meta_classification_type": "U",
        "meta_norad_cat_id": 66174,
        "meta_element_set_no": 999,
        "meta_rev_at_epoch": 51,
        "meta_bstar": 0.00016365535,
        "meta_mean_motion_dot": 8.648e-05,
        "meta_mean_motion_ddot": 0,
        "tle_line1": "1 66174U 25241A   25335.57620886  .00008648  00000+0  16366-3 0  9998",
        "tle_line2": "2 66174  51.6309 197.7449 0003647 190.9481 169.1428 15.49226524   510"
      },
      "geometry": {
        "type": "Point",
        "coordinates": [
          31.31402709745876,
          -21.20879598130756
        ]
      }
    },
    {
      "type": "Feature",
      "properties": {
        "norad_id": 66515,
        "name": "SZ-21 MODULE",
        "group": "stations",
        "lat": 40.54806659657745,
        "lon": 154.34761092521774,
        "alt_km": 377.9753477104232,
        "timestamp": "2025-12-02T10:50:46.071030+00:00",
        "meta_object_name": "SZ-21 MODULE",
        "meta_object_id": "2025-246C",
        "meta_epoch": "2025-12-01T23:45:55.979136",
        "meta_mean_motion": 15.61701927,
        "meta_eccentricity": 0.0005672,
        "meta_inclination": 41.4766,
        "meta_ra_of_asc_node": 81.5812,
        "meta_arg_of_pericenter": 196.2945,
        "meta_mean_anomaly": 163.7713,
        "meta_ephemeris_type": 0,
        "meta_classification_type": "U",
        "meta_norad_cat_id": 66515,
        "meta_element_set_no": 999,
        "meta_rev_at_epoch": 276,
        "meta_bstar": 0.00033718,
        "meta_mean_motion_dot": 0.00029734,
        "meta_mean_motion_ddot": 0,
        "tle_line1": "1 66515U 25246C   25335.99023124  .00029734  00000+0  33718-3 0  9999",
        "tle_line2": "2 66515  41.4766  81.5812 0005672 196.2945 163.7713 15.61701927  2766"
      },
      "geometry": {
        "type": "Point",
        "coordinates": [
          154.34761092521774,
          40.54806659657745
        ]
      }
    },
    {
      "type": "Feature",
      "properties": {
        "norad_id": 66645,
        "name": "SHENZHOU-22",
        "group": "stations",
        "lat": -37.90261180308951,
        "lon": 17.290872629965808,
        "alt_km": 388.4133036258054,
        "timestamp": "2025-12-02T10:50:46.071043+00:00",
        "meta_object_name": "SHENZHOU-22",
        "meta_object_id": "2025-272A",
        "meta_epoch": "2025-12-01T15:08:36.996864",
        "meta_mean_motion": 15.5848082,
        "meta_eccentricity": 0.00103969,
        "meta_inclination": 41.4671,
        "meta_ra_of_asc_node": 84.1132,
        "meta_arg_of_pericenter": 308.0304,
        "meta_mean_anomaly": 51.9595,
        "meta_ephemeris_type": 0,
        "meta_classification_type": "U",
        "meta_norad_cat_id": 66645,
        "meta_element_set_no": 999,
        "meta_rev_at_epoch": 26230,
        "meta_bstar": 0.00025188161,
        "meta_mean_motion_dot": 0.00019534,
        "meta_mean_motion_ddot": 0,
        "tle_line1": "1 66645U 25272A   25335.63098376  .00019534  00000+0  25188-3 0  9993",
        "tle_line2": "2 66645  41.4671  84.1132 0010396 308.0304  51.9595 15.58480820262306"
      },
      "geometry": {
        "type": "Point",
        "coordinates": [
          17.290872629965808,
          -37.90261180308951
        ]
      }
    },
    {
      "type": "Feature",
      "properties": {
        "norad_id": 66646,
        "name": "CZ-2F R/B",
        "group": "stations",
        "lat": 24.374558212857,
        "lon": 106.92765497498144,
        "alt_km": 304.5887006674802,
        "timestamp": "2025-12-02T10:50:46.071054+00:00",
        "meta_object_name": "CZ-2F R/B",
        "meta_object_id": "2025-272B",
        "meta_epoch": "2025-11-26T11:17:54.506400",
        "meta_mean_motion": 16.01945612,
        "meta_eccentricity": 0.01210796,
        "meta_inclination": 41.4431,
        "meta_ra_of_asc_node": 114.9009,
        "meta_arg_of_pericenter": 133.7676,
        "meta_mean_anomaly": 227.3272,
        "meta_ephemeris_type": 0,
        "meta_classification_type": "U",
        "meta_norad_cat_id": 66646,
        "meta_element_set_no": 999,
        "meta_rev_at_epoch": 21,
        "meta_bstar": 0.00029319366,
        "meta_mean_motion_dot": 0.00449059,
        "meta_mean_motion_ddot": 7.567612e-06,
        "tle_line1": "1 66646U 25272B   25330.47076975  .00449059  75676-5  29319-3 0  9998",
        "tle_line2": "2 66646  41.4431 114.9009 0121079 133.7676 227.3272 16.01945612   217"
      },
      "geometry": {
        "type": "Point",
        "coordinates": [
          106.92765497498144,
          24.374558212857
        ]
      }
    },
    {
      "type": "Feature",
      "properties": {
        "norad_id": 66664,
        "name": "SOYUZ-MS 28",
        "group": "stations",
        "lat": -21.213463053306192,
        "lon": 31.31931880863518,
        "alt_km": 419.55153360351505,
        "timestamp": "2025-12-02T10:50:46.071065+00:00",
        "meta_object_name": "SOYUZ-MS 28",
        "meta_object_id": "2025-275A",
        "meta_epoch": "2025-12-01T21:34:10.812000",
        "meta_mean_motion": 15.49234272,
        "meta_eccentricity": 0.0003628,
        "meta_inclination": 51.6307,
        "meta_ra_of_asc_node": 196.1486,
        "meta_arg_of_pericenter": 192.4733,
        "meta_mean_anomaly": 167.6166,
        "meta_ephemeris_type": 0,
        "meta_classification_type": "U",
        "meta_norad_cat_id": 66664,
        "meta_element_set_no": 999,
        "meta_rev_at_epoch": 76,
        "meta_bstar": 0.0001829,
        "meta_mean_motion_dot": 9.722e-05,
        "meta_mean_motion_ddot": 0,
        "tle_line1": "1 66664U 25275A   25335.89873625  .00009722  00000+0  18290-3 0  9997",
        "tle_line2": "2 66664  51.6307 196.1486 0003628 192.4733 167.6166 15.49234272   760"
      },
      "geometry": {
        "type": "Point",
        "coordinates": [
          31.31931880863518,
          -21.213463053306192
        ]
      }
    }
  ]
}